$$SOE
2460154.500000000, A.D. 2023-Jul-29 00:00:00.0000, -4.232022944567536E+08, 1.107598180592901E+07, -1.920304198354655E+07,
2460161.500000000, A.D. 2023-Aug-05 00:00:00.0000, -4.240558633696874E+08, 6.440852584231459E+04, -1.878846885591634E+07,
2460168.500000000, A.D. 2023-Aug-12 00:00:00.0000, -4.246403349621999E+08, -1.094722765924172E+07, -1.836196803321005E+07,
2460175.500000000, A.D. 2023-Aug-19 00:00:00.0000, -4.249566811038573E+08, -2.195197430680554E+07, -1.792386807220055E+07,
2460182.500000000, A.D. 2023-Aug-26 00:00:00.0000, -4.250060673109860E+08, -3.294295435204817E+07, -1.747450306803961E+07,
2460189.500000000, A.D. 2023-Sep-02 00:00:00.0000, -4.247898479652086E+08, -4.391337189379926E+07, -1.701421220154401E+07,
2460196.500000000, A.D. 2023-Sep-09 00:00:00.0000, -4.243095613489193E+08, -5.485651779106385E+07, -1.654333930269349E+07,
2460203.500000000, A.D. 2023-Sep-16 00:00:00.0000, -4.235669243484668E+08, -6.576577512552260E+07, -1.606223245141903E+07,
2460210.500000000, A.D. 2023-Sep-23 00:00:00.0000, -4.225638264274040E+08, -7.663462424165754E+07, -1.557124363123050E+07,
2460217.500000000, A.D. 2023-Sep-30 00:00:00.0000, -4.213023232272995E+08, -8.745664617348343E+07, -1.507072830790010E+07,
2460224.500000000, A.D. 2023-Oct-07 00:00:00.0000, -4.197846321675303E+08, -9.822552500224334E+07, -1.456104476236465E+07,
2460231.500000000, A.D. 2023-Oct-14 00:00:00.0000, -4.180131290233338E+08, -1.089350524611714E+08, -1.404255354480689E+07,
2460238.500000000, A.D. 2023-Oct-21 00:00:00.0000, -4.159903422723106E+08, -1.195791331868348E+08, -1.351561721557852E+07,
2460245.500000000, A.D. 2023-Oct-28 00:00:00.0000, -4.137189466488951E+08, -1.301517883592633E+08, -1.298060005761176E+07,
2460252.500000000, A.D. 2023-Nov-04 00:00:00.0000, -4.112017571705108E+08, -1.406471585061232E+08, -1.243786770869836E+07,
2460259.500000000, A.D. 2023-Nov-11 00:00:00.0000, -4.084417234727611E+08, -1.510595060775589E+08, -1.188778677930086E+07,
2460266.500000000, A.D. 2023-Nov-18 00:00:00.0000, -4.054419242495400E+08, -1.613832178628680E+08, -1.133072448160005E+07,
2460273.500000000, A.D. 2023-Nov-25 00:00:00.0000, -4.022055617395049E+08, -1.716128072332573E+08, -1.076704827474216E+07,
2460280.500000000, A.D. 2023-Dec-02 00:00:00.0000, -3.987359562436596E+08, -1.817429162292209E+08, -1.019712552983581E+07,
2460287.500000000, A.D. 2023-Dec-09 00:00:00.0000, -3.950365406082429E+08, -1.917683175595204E+08, -9.621323226725578E+06,
2460294.500000000, A.D. 2023-Dec-16 00:00:00.0000, -3.911108543967557E+08, -2.016839165078069E+08, -9.040007708006561E+06,
2460301.500000000, A.D. 2023-Dec-23 00:00:00.0000, -3.869625374133068E+08, -2.114847520682430E+08, -8.453544466197819E+06,
2460308.500000000, A.D. 2023-Dec-30 00:00:00.0000, -3.825953239269876E+08, -2.211659962697034E+08, -7.862297755543411E+06,
2460315.500000000, A.D. 2024-Jan-06 00:00:00.0000, -3.780130393785795E+08, -2.307229540587186E+08, -7.266630059030429E+06,
2460322.500000000, A.D. 2024-Jan-13 00:00:00.0000, -3.732195964062414E+08, -2.401510655576998E+08, -6.666901849536508E+06,
2460329.500000000, A.D. 2024-Jan-20 00:00:00.0000, -3.682189889745666E+08, -2.494459076217317E+08, -6.063471505166054E+06,
2460336.500000000, A.D. 2024-Jan-27 00:00:00.0000, -3.630152866399133E+08, -2.586031940487678E+08, -5.456695139128044E+06,
2460343.500000000, A.D. 2024-Feb-03 00:00:00.0000, -3.576126293825137E+08, -2.676187754009128E+08, -4.846926382373080E+06,
2460350.500000000, A.D. 2024-Feb-10 00:00:00.0000, -3.520152227311037E+08, -2.764886387396857E+08, -4.234516168544427E+06,
2460357.500000000, A.D. 2024-Feb-17 00:00:00.0000, -3.462273330466609E+08, -2.852089072800181E+08, -3.619812533692896E+06,
2460364.500000000, A.D. 2024-Feb-24 00:00:00.0000, -3.402532829356344E+08, -2.937758399597565E+08, -3.003160433004931E+06,
2460371.500000000, A.D. 2024-Mar-02 00:00:00.0000, -3.340974467688784E+08, -3.021858309671006E+08, -2.384901579779789E+06,
2460378.500000000, A.D. 2024-Mar-09 00:00:00.0000, -3.277642461714707E+08, -3.104354092976650E+08, -1.765374324236542E+06,
2460385.500000000, A.D. 2024-Mar-16 00:00:00.0000, -3.212581450906003E+08, -3.185212381522772E+08, -1.144913591913626E+06,
2460392.500000000, A.D. 2024-Mar-23 00:00:00.0000, -3.145836445463501E+08, -3.264401130745302E+08, -5.238507811324894E+05,
2460399.500000000, A.D. 2024-Mar-30 00:00:00.0000, -3.077452793065482E+08, -3.341889588628339E+08, 9.748658419270813E+04,
2460406.500000000, A.D. 2024-Apr-06 00:00:00.0000, -3.007476162293993E+08, -3.417648286335061E+08, 7.187751479320526E+05,
2460413.500000000, A.D. 2024-Apr-13 00:00:00.0000, -2.935952507236529E+08, -3.491649042080548E+08, 1.339695704227880E+06,
2460420.500000000, A.D. 2024-Apr-20 00:00:00.0000, -2.862928022793660E+08, -3.563864951560933E+08, 1.959933175644487E+06,
2460427.500000000, A.D. 2024-Apr-27 00:00:00.0000, -2.788449105858601E+08, -3.634270370618524E+08, 2.579176680751413E+06,
2460434.500000000, A.D. 2024-May-04 00:00:00.0000, -2.712562321474569E+08, -3.702840897238302E+08, 3.197119626010403E+06,
2460441.500000000, A.D. 2024-May-11 00:00:00.0000, -2.635314371566327E+08, -3.769553353957276E+08, 3.813459792133510E+06,
2460448.500000000, A.D. 2024-May-18 00:00:00.0000, -2.556752065405756E+08, -3.834385770535881E+08, 4.427899409542471E+06,
2460455.500000000, A.D. 2024-May-25 00:00:00.0000, -2.476922291544222E+08, -3.897317367026216E+08, 5.040145220565319E+06,
2460462.500000000, A.D. 2024-Jun-01 00:00:00.0000, -2.395871990591018E+08, -3.958328537871981E+08, 5.649908518754721E+06,
2460469.500000000, A.D. 2024-Jun-08 00:00:00.0000, -2.313648126349906E+08, -4.017400837329269E+08, 6.256905141456991E+06,
2460476.500000000, A.D. 2024-Jun-15 00:00:00.0000, -2.230297651294280E+08, -4.074516960816140E+08, 6.860855424157202E+06,
2460483.500000000, A.D. 2024-Jun-22 00:00:00.0000, -2.145867476408724E+08, -4.129660710492756E+08, 7.461484305452853E+06,
2460490.500000000, A.D. 2024-Jun-29 00:00:00.0000, -2.060404466583931E+08, -4.182816963328094E+08, 8.058521628976613E+06,
2460497.500000000, A.D. 2024-Jul-06 00:00:00.0000, -1.973955435085942E+08, -4.233971666419246E+08, 8.651702198161423E+06,
2460504.500000000, A.D. 2024-Jul-13 00:00:00.0000, -1.886567117587190E+08, -4.283111831380431E+08, 9.240765636368960E+06,
2460511.500000000, A.D. 2024-Jul-20 00:00:00.0000, -1.798286145596299E+08, -4.330225516359066E+08, 9.825456328913987E+06,
2460518.500000000, A.D. 2024-Jul-27 00:00:00.0000, -1.709159025819978E+08, -4.375301805306242E+08, 1.040552342911637E+07,
2460525.500000000, A.D. 2024-Aug-03 00:00:00.0000, -1.619232122695074E+08, -4.418330788279701E+08, 1.098072087290770E+07,
2460532.500000000, A.D. 2024-Aug-10 00:00:00.0000, -1.528551642396491E+08, -4.459303542852733E+08, 1.155080738647667E+07,
2460539.500000000, A.D. 2024-Aug-17 00:00:00.0000, -1.437163617810781E+08, -4.498212116443856E+08, 1.211554648439598E+07,
2460546.500000000, A.D. 2024-Aug-24 00:00:00.0000, -1.345113894163725E+08, -4.535049509823905E+08, 1.267470645389760E+07,
2460553.500000000, A.D. 2024-Aug-31 00:00:00.0000, -1.252448114116552E+08, -4.569809662447413E+08, 1.322806030975884E+07,
2460560.500000000, A.D. 2024-Sep-07 00:00:00.0000, -1.159211698649431E+08, -4.602487438372287E+08, 1.377538569671503E+07,
2460567.500000000, A.D. 2024-Sep-14 00:00:00.0000, -1.065449822855815E+08, -4.633078602829877E+08, 1.431646481308621E+07,
2460574.500000000, A.D. 2024-Sep-21 00:00:00.0000, -9.712074069113339E+07, -4.661579785327641E+08, 1.485108457548103E+07,
2460581.500000000, A.D. 2024-Sep-28 00:00:00.0000, -8.765291270593758E+07, -4.687988461558812E+08, 1.537903680543327E+07,
2460588.500000000, A.D. 2024-Oct-05 00:00:00.0000, -7.814594098769438E+07, -4.712302954107325E+08, 1.590011810140702E+07,
2460595.500000000, A.D. 2024-Oct-12 00:00:00.0000, -6.860424133878821E+07, -4.734522422159740E+08, 1.641412967279747E+07,
2460602.500000000, A.D. 2024-Oct-19 00:00:00.0000, -5.903220124928324E+07, -4.754646842946826E+08, 1.692087727445105E+07,
2460609.500000000, A.D. 2024-Oct-26 00:00:00.0000, -4.943417890021116E+07, -4.772676992948540E+08, 1.742017117931604E+07,
2460616.500000000, A.D. 2024-Nov-02 00:00:00.0000, -3.981450236676564E+07, -4.788614430367966E+08, 1.791182615372470E+07,
2460623.500000000, A.D. 2024-Nov-09 00:00:00.0000, -3.017746892226898E+07, -4.802461478683758E+08, 1.839566142840281E+07,
2460630.500000000, A.D. 2024-Nov-16 00:00:00.0000, -2.052734441451184E+07, -4.814221211289027E+08, 1.887150066311511E+07,
2460637.500000000, A.D. 2024-Nov-23 00:00:00.0000, -1.086836266496571E+07, -4.823897437723320E+08, 1.933917189685297E+07,
2460644.500000000, A.D. 2024-Nov-30 00:00:00.0000, -1.204724680044219E+06, -4.831494691930096E+08, 1.979850746129388E+07,
2460651.500000000, A.D. 2024-Dec-07 00:00:00.0000, 8.459402747435518E+06, -4.837018218337505E+08, 2.024934385376215E+07,
2460658.500000000, A.D. 2024-Dec-14 00:00:00.0000, 1.811988836024650E+07, -4.840473943522829E+08, 2.069152173317090E+07,
2460665.500000000, A.D. 2024-Dec-21 00:00:00.0000, 2.777263536602174E+07, -4.841868445860228E+08, 2.112488615038848E+07,
2460672.500000000, A.D. 2024-Dec-28 00:00:00.0000, 3.741357994928713E+07, -4.841208952816451E+08, 2.154928658972067E+07,
2460679.500000000, A.D. 2025-Jan-04 00:00:00.0000, 4.703869196660401E+07, -4.838503342137312E+08, 2.196457677776292E+07,
2460686.500000000, A.D. 2025-Jan-11 00:00:00.0000, 5.664397600602435E+07, -4.833760130335106E+08, 2.237061456275207E+07,
2460693.500000000, A.D. 2025-Jan-18 00:00:00.0000, 6.622547189607155E+07, -4.826988457667418E+08, 2.276726187385413E+07,
2460700.500000000, A.D. 2025-Jan-25 00:00:00.0000, 7.577925490984826E+07, -4.818198074351590E+08, 2.315438469964212E+07,
2460707.500000000, A.D. 2025-Feb-01 00:00:00.0000, 8.530143585582821E+07, -4.807399328312944E+08, 2.353185306625065E+07,
2460714.500000000, A.D. 2025-Feb-08 00:00:00.0000, 9.478816111581860E+07, -4.794603154264737E+08, 2.389954101170680E+07,
$$EOE